{"type":"FeatureCollection","features":[{"type":"Feature","id":1,"geometry":{"type":"LineString","coordinates":[[-74.157348246833436,4.5804065092859378],[-74.157401140775221,4.5804025826327353],[-74.157452854655162,4.5803989976866948],[-74.157727988263062,4.5803841433612735],[-74.15800341113281,4.5803763668550097],[-74.158278941308211,4.5803756726902902],[-74.158554399535362,4.5803820617739008],[-74.158829603857896,4.5803955295892722],[-74.159104374120943,4.5804160680042658],[-74.159378529268693,4.5804436625594063],[-74.159651890947572,4.5804782960835446],[-74.159924278101428,4.5805199450782093],[-74.160195513277131,4.5805685833333145],[-74.160465417219669,4.5806241774074152],[-74.160733814277037,4.5806866920514029],[-74.161000526094497,4.5807560856887894],[-74.161265379721868,4.5808323122234809],[-74.161528200407091,4.580915322847817],[-74.161788815199216,4.5810050624267102],[-74.162047054750332,4.581101472209367],[-74.162302747009576,4.5812044880216254],[-74.16255572623146,4.5813140438814788],[-74.162805825769169,4.581430066575531],[-74.163052880777144,4.581552481082662],[-74.16329673001249,4.5816812051502387],[-74.163537213132784,4.581816156525818],[-74.163774172497469,4.5819572457254143],[-74.164007452267114,4.5821043796493885],[-74.164236899304214,4.5822574615823806],[-74.164462363173186,4.5824163920972101],[-74.16468369523956,4.5825810663431126],[-74.164900751372343,4.5827513767574999],[-74.165113388340814,4.582927210354085],[-74.165321466516943,4.5831084523387489],[-74.165524849875453,4.583294984301526],[-74.165723405092905,4.5834866833126888],[-74.165917000646928,4.5836834237306867],[-74.166105510419484,4.5838850762980332],[-74.166288810093562,4.5840915081414693],[-74.166425511063892,4.584252653335998],[-74.166670797461151,4.5844366301406092],[-74.166920225789937,4.5846149118566615],[-74.167173664525066,4.5847874044728867],[-74.167430979438436,4.584954016690058],[-74.167692037202514,4.585114661728829],[-74.167956698183616,4.5852692537141211],[-74.168224824549426,4.5854177121946345],[-74.168496273963171,4.5855599594312197],[-74.168770904087765,4.5856959194928102],[-74.169048570784241,4.5858255218722634],[-74.16932912721083,4.5859486969666374],[-74.169612426525561,4.5860653815008581],[-74.16989831828289,4.5861755122001675],[-74.170186652937971,4.5862790330215795],[-74.170477279144038,4.5863758888263435],[-74.170770042851643,4.5864660280918033],[-74.171064790011258,4.58654940291136],[-74.171361366573223,4.5866259708023245],[-74.171659614884391,4.5866956910902852],[-74.171959379093195,4.5867585267168307],[-74.172260500645578,4.5868144442396712],[-74.172562821888206,4.5868634156404315],[-74.172866182465228,4.5869054138051091],[-74.173170424723267,4.5869404161395249],[-74.173475385604092,4.5869684063776894],[-74.173780907454343,4.5869893673496991],[-74.174086827215916,4.5870032900216744],[-74.174392985433926,4.5870101653598745],[-74.174699219951279,4.5870099915625371],[-74.175005369511751,4.5870027668281237],[-74.175311273760144,4.5869884965869501],[-74.175616771440602,4.5869671871736095],[-74.175921701297469,4.5869388503466064],[-74.176225902976171,4.5869035014805357],[-74.176529216122347,4.5868611577581282],[-74.176831482183601,4.586811842689972],[-74.177132539905344,4.5867555824988635],[-74.177432233438182,4.5866924052155538],[-74.17773040242912,4.5866223461028],[-74.178026891930273,4.5865454404234018],[-74.178321545192617,4.5864617297681445],[-74.178614206368266,4.5863712575358697],[-74.17890472231224,4.5862740707413812],[-74.179192939880167,4.5861702227273282],[-74.179478707729487,4.5860597659325517],[-74.179761874518306,4.5859427591237729],[-74.180042291607677,4.5858192646835629],[-74.180319811259935,4.5856893468025728],[-74.180594287539606,4.585553074191286],[-74.180865576313352,4.5854105182721741],[-74.181133534349229,4.5852617540835849],[-74.181398021118341,4.5851068602797405],[-74.181658896092415,4.5849459191307957],[-74.181916023247666,4.5847790138107767],[-74.182169266561075,4.584606232917567],[-74.182418492712642,4.5844276677608358],[-74.182663571085385,4.584243411458214],[-74.182904372864627,4.5840535616470168],[-74.183140770137101,4.5838582186765029],[-74.183156072563804,4.5838449705078599]]},"properties":{"OBJECTID":1,"CODIGO_ID":" ","NOMBRE":"Cable aéreo  Tres Esquinas (Potosí - Sierra Morena) Soacha Cazuca - Sierra Morena Fase I","CARACTERIS":" ","ACTO_ADMIN":"DEC","NUMERO_ACT":"555","FECHA_ACTO":1640736000000,"NORMATIVA":"En el marco del Decreto 555 del 29 de diciembre de 2021 - Por el cual se adopta la revisión general del Plan de Ordenamiento Territorial de Bogotá","TIPO_CAPAC":"Corredores media capacidad","OBSERVACIO":" ","FASE":2,"PLAZO":"Corto","ESCALA_CAP":" ","FECHA_CAPT":1640736000000,"RESPONSABL":"607","REGLAID":1,"RULEID":1,"Shape_Leng":3277.8686488799999,"Shape_Length":3144.1322323725954}},{"type":"Feature","id":2,"geometry":{"type":"LineString","coordinates":[[-74.139391095277702,4.5696952555544996],[-74.147416769571947,4.5558059600293745],[-74.150521042712683,4.5502751979153517],[-74.158854806880584,4.5500998985901049]]},"properties":{"OBJECTID":2,"CODIGO_ID":"1","NOMBRE":"Cable Aéreo en la localidad de Ciudad Bolívar","CARACTERIS":" ","ACTO_ADMIN":"DEC","NUMERO_ACT":"555","FECHA_ACTO":1640736000000,"NORMATIVA":"En el marco del Decreto 555 del 29 de diciembre de 2021 - Por el cual se adopta la revisión general del Plan de Ordenamiento Territorial de Bogotá","TIPO_CAPAC":"Corredores media capacidad","OBSERVACIO":" ","FASE":1,"PLAZO":" ","ESCALA_CAP":" ","FECHA_CAPT":1640736000000,"RESPONSABL":"607","REGLAID":1,"RULEID":1,"Shape_Leng":3403.7397019499999,"Shape_Length":3403.7397019452205}},{"type":"Feature","id":3,"geometry":{"type":"LineString","coordinates":[[-74.178920593084356,4.5729735064516177],[-74.178898424843609,4.5729659386769672],[-74.178550725537548,4.5728547593628175],[-74.178200940372776,4.5727503803883325],[-74.177849200859384,4.5726528406146745],[-74.177495638507068,4.5725621761914708],[-74.177140388428498,4.5724784223643979],[-74.176783583033483,4.5724016098598286],[-74.176425358334797,4.57233176759628],[-74.176065849444115,4.5722689226846924],[-74.175705191472801,4.5722130986204483],[-74.175343520432776,4.5721643161873287],[-74.174980974137355,4.5721225943613764],[-74.174617687697122,4.5720879475992842],[-74.174253799825834,4.5720603912618216],[-74.173889446534474,4.5720399334784938],[-74.173524766536374,4.5720265823790438],[-74.173159895842375,4.5720203442856242],[-74.172794974066264,4.5720212210008189],[-74.172430138119381,4.5720292116157237],[-74.172065525813821,4.5720443134137776],[-74.171701274060709,4.572066520062898],[-74.17133752157288,4.5720958243272953],[-74.170974405261433,4.5721322153557047],[-74.170612061136694,4.5721756777774187],[-74.170250627010617,4.5722261971258673],[-74.169890239794356,4.5722837526071221],[-74.169531034597597,4.572348323427625],[-74.169173146529971,4.5724198842742521],[-74.168816712502974,4.5724984098341652],[-74.168461865824895,4.5725838693711136],[-74.16810873980414,4.5726762303412345],[-74.167757468650152,4.5727754583929832],[-74.167408185671718,4.5728815164632248],[-74.167061021475348,4.5729943638733417],[-74.166716106667778,4.5731139581370499],[-74.166373573657637,4.5732402540563761],[-74.166033549448869,4.5733732037218937],[-74.16569616374818,4.5735127574163776],[-74.165361542659255,4.5736588627110653],[-74.165029814087745,4.5738114644655505],[-74.164701102336267,4.573970503923821],[-74.164375530807092,4.5741359223301741],[-74.164053223803492,4.5743076564092187],[-74.16373430292677,4.5744856419819264],[-74.163418887076077,4.574669811253683],[-74.163107096952558,4.5748600946220392],[-74.162799049654595,4.5750564215808707],[-74.1624948604792,4.5752587162005529],[-74.162194645624709,4.5754669034554905],[-74.161899656290245,4.5756800649103431],[-74.161608832237746,4.575898915618378],[-74.161322283361102,4.5761233724188841],[-74.161040117753117,4.5763533530552323],[-74.160762439002809,4.5765887698472358],[-74.160489352501386,4.5768295351148254],[-74.16022096093802,4.5770755584661318],[-74.159957364299885,4.5773267486054809],[-74.159698660772989,4.5775830106214892],[-74.159444947642925,4.5778442477949159],[-74.159196320394244,4.578110364310537],[-74.158952871809333,4.5783812589295101],[-74.158714692869566,4.5786568304130366],[-74.158481872755075,4.5789369766184072],[-74.158254499745567,4.5792215908831659],[-74.158032657617255,4.5795105683527986],[-74.15781643014671,4.5798037996530754],[-74.157605898408491,4.5801011745057867],[-74.157401140775221,4.5804025826327353],[-74.157366197184786,4.5804552970128674]]},"properties":{"OBJECTID":3,"CODIGO_ID":"6","NOMBRE":"Cable aéreo Soacha Ciudadela Sucre - Sierra Morena Fase II","CARACTERIS":" ","ACTO_ADMIN":"DEC","NUMERO_ACT":"555","FECHA_ACTO":1640736000000,"NORMATIVA":"En el marco del Decreto 555 del 29 de diciembre de 2021 - Por el cual se adopta la revisión general del Plan de Ordenamiento Territorial de Bogotá","TIPO_CAPAC":"Corredores media capacidad","OBSERVACIO":" ","FASE":2,"PLAZO":"Corto","ESCALA_CAP":" ","FECHA_CAPT":1640736000000,"RESPONSABL":"607","REGLAID":1,"RULEID":1,"Shape_Leng":3406.9350477799999,"Shape_Length":2720.8504892909305}},{"type":"Feature","id":4,"geometry":{"type":"LineString","coordinates":[[-74.171394081448724,4.5949408661653584],[-74.17153501273819,4.594750570793444],[-74.172958062103461,4.5928290713758733],[-74.180036751972551,4.5832707318607522],[-74.179895736636695,4.5830467062059794],[-74.177915877287973,4.5799013498495018],[-74.176494680254564,4.5776435079134972],[-74.172867862703356,4.5718019850769558],[-74.171402592641385,4.5694419197557838]]},"properties":{"OBJECTID":4,"CODIGO_ID":"9","NOMBRE":"Zona Norte de Ciudad Bolívar (Portal Sur - Potosí)","CARACTERIS":" ","ACTO_ADMIN":"RES","NUMERO_ACT":"0698","FECHA_ACTO":1714003200000,"NORMATIVA":"En el marco del Decreto 555 del 29 de diciembre de 2021 - Por el cual se adopta la revisión general del Plan de Ordenamiento Territorial de Bogotá","TIPO_CAPAC":"Corredores media capacidad","OBSERVACIO":"A partir de la Factibilidad del Convenio de Cooperaicón IDU 1547 de 2020 con la AFD","FASE":0,"PLAZO":"Corto","ESCALA_CAP":"1:1000","FECHA_CAPT":1714003200000,"RESPONSABL":"622","REGLAID":1,"RULEID":1,"Shape_Leng":3413.7713856800001,"Shape_Length":3413.7713856800056}}]}