{
"type": "FeatureCollection",
"name": "Estaciones_cable",
"crs": { "type": "name", "properties": { "name": "urn:ogc:def:crs:OGC:1.3:CRS84" } },
"features": [
{"type":"Feature","properties":{"cod_nodo":40001,"longitud":-74.14742272000001,"latitud":4.55578762,"objectid":41,"nom_est":"Juan Pablo II","area_edif":4041,"area_urb":3680,"link_trans":"https://transmilenio.sharepoint.com/sites/TransMitiendo/TransMiCable/SitePages/Estación-Juan-Pablo-II-Equipos.aspx","esta_oper":1,"id_subtram":101,"eta_oper":1,"ascens":2,"eq_h_lluv":1,"eq_h_potab":1,"eyec_frea":0,"eyec_negr":0,"motorred":0,"num_est":102,"plant_elec":1,"red_c_inc":1,"sist_vent":0,"ups":1,"globalid":"{ECD47A85-353E-4659-A6E4-2723D99361C0}","created_user":null,"created_date":null,"last_edited_user":null,"last_edited_date":null},"geometry":{"type":"Point","coordinates":[-74.147422723625937,4.55578761592027]}},
{"type":"Feature","properties":{"cod_nodo":40002,"longitud":-74.15051679,"latitud":4.55027497,"objectid":42,"nom_est":"Manitas","area_edif":2760,"area_urb":2842,"link_trans":"https://transmilenio.sharepoint.com/sites/TransMitiendo/TransMiCable/SitePages/Estación-Manitas-Equipos.aspx","esta_oper":1,"id_subtram":102,"eta_oper":1,"ascens":2,"eq_h_lluv":1,"eq_h_potab":1,"eyec_frea":0,"eyec_negr":0,"motorred":2,"num_est":103,"plant_elec":3,"red_c_inc":1,"sist_vent":2,"ups":1,"globalid":"{07B79018-7C9B-42F2-BFD8-188D768F6C02}","created_user":null,"created_date":null,"last_edited_user":"editorInfraSTS","last_edited_date":"2026-08-25T15:29:18Z"},"geometry":{"type":"Point","coordinates":[-74.150516792398719,4.55027497343753]}},
{"type":"Feature","properties":{"cod_nodo":40003,"longitud":-74.15885056,"latitud":4.55009963,"objectid":43,"nom_est":"Mirador Del Paraiso","area_edif":1298,"area_urb":2657,"link_trans":"https://transmilenio.sharepoint.com/sites/TransMitiendo/TransMiCable/SitePages/Estación-Mirador-Del-Paraíso-Equipos.aspx","esta_oper":1,"id_subtram":103,"eta_oper":1,"ascens":2,"eq_h_lluv":1,"eq_h_potab":1,"eyec_frea":0,"eyec_negr":0,"motorred":0,"num_est":104,"plant_elec":1,"red_c_inc":1,"sist_vent":0,"ups":1,"globalid":"{A37D27BD-FB9E-42EB-8149-C440082F1E30}","created_user":null,"created_date":null,"last_edited_user":null,"last_edited_date":null},"geometry":{"type":"Point","coordinates":[-74.158850556213551,4.550099634459959]}},
{"type":"Feature","properties":{"cod_nodo":40000,"longitud":-74.13967678,"latitud":4.56919348,"objectid":44,"nom_est":"Tunal","area_edif":5969,"area_urb":5962,"link_trans":"https://transmilenio.sharepoint.com/sites/TransMitiendo/TransMiCable/SitePages/Estación-Tunal-Equipos.aspx","esta_oper":1,"id_subtram":101,"eta_oper":1,"ascens":0,"eq_h_lluv":1,"eq_h_potab":1,"eyec_frea":2,"eyec_negr":2,"motorred":0,"num_est":101,"plant_elec":1,"red_c_inc":1,"sist_vent":0,"ups":1,"globalid":"{861AADE4-30B3-4A4A-BD3B-A1C4F56E9E1A}","created_user":null,"created_date":null,"last_edited_user":null,"last_edited_date":null},"geometry":{"type":"Point","coordinates":[-74.139676779895495,4.569193483848131]}}
]
}
