{"type":"FeatureCollection","features":[{"type":"Feature","id":1,"geometry":{"type":"Point","coordinates":[-74.120079239999939,4.5757941520000713]},"properties":{"OBJECTID":1,"observ":"Valores de capacidad de buses en proceso de actualización","longitud":-74.12007924000001,"latitud":4.5757941500000001,"objectid_1":634,"num_est":"09100","nom_est":"Calle 40 Sur","id_trazado":"TZ012","long_est":179.91999999999999,"ancho_est":4,"area_est":719.67999999999995,"esta_oper":1,"eta_oper":1,"tipo_esta":2,"ub_est":"CL 38 Sur - CL 40 Sur","num_acc":2,"acc_esp":2,"acc_depr":0,"acc_puent":0,"cod_nodo":9100,"cap_biart":168,"num_vag":3,"cap_art":224,"globalid":"{E51B4CD7-37E8-426A-BD1A-77F3CA508E05}","created_user":null,"created_date":null,"last_edited_user":null,"last_edited_date":null}},{"type":"Feature","id":2,"geometry":{"type":"Point","coordinates":[-74.123755076999942,4.5938094390000401]},"properties":{"OBJECTID":2,"observ":"Valores de capacidad de buses en proceso de actualización","longitud":-74.123755079999995,"latitud":4.5938094400000002,"objectid_1":648,"num_est":"07007","nom_est":"Cl38A sur - CENTRO MAYOR","id_trazado":"TZ010","long_est":153.94999999999999,"ancho_est":4,"area_est":615.79999999999995,"esta_oper":1,"eta_oper":1,"tipo_esta":4,"ub_est":"Autosur - KR 39A","num_acc":1,"acc_esp":0,"acc_depr":0,"acc_puent":1,"cod_nodo":7007,"cap_biart":72,"num_vag":2,"cap_art":140,"globalid":"{2290C749-E58E-4AAC-8A0B-0C9127ED60AE}","created_user":null,"created_date":null,"last_edited_user":"editorTroncal","last_edited_date":"2026-06-05T19:31:30Z"}},{"type":"Feature","id":3,"geometry":{"type":"Point","coordinates":[-74.193135312999971,4.5921728110000686]},"properties":{"OBJECTID":3,"observ":"Valores de capacidad de buses en proceso de actualización","longitud":-74.193135310000002,"latitud":4.5921728100000001,"objectid_1":657,"num_est":"07505","nom_est":"León XIII","id_trazado":"TZ011","long_est":89.5,"ancho_est":4,"area_est":358,"esta_oper":1,"eta_oper":1,"tipo_esta":4,"ub_est":"Soacha","num_acc":1,"acc_esp":0,"acc_depr":0,"acc_puent":1,"cod_nodo":7505,"cap_biart":72,"num_vag":2,"cap_art":152,"globalid":"{0A840F23-9FB9-45DF-AC3D-7219183BA657}","created_user":null,"created_date":null,"last_edited_user":null,"last_edited_date":null}},{"type":"Feature","id":4,"geometry":{"type":"Point","coordinates":[-74.199522611999953,4.5889627040000391]},"properties":{"OBJECTID":4,"observ":"Valores de capacidad de buses en proceso de actualización","longitud":-74.199522610000002,"latitud":4.5889626999999997,"objectid_1":661,"num_est":"07504","nom_est":"Terreros - Hospital Cardio Vascular","id_trazado":"TZ011","long_est":89.5,"ancho_est":4,"area_est":358,"esta_oper":1,"eta_oper":1,"tipo_esta":4,"ub_est":"Soacha","num_acc":1,"acc_esp":0,"acc_depr":0,"acc_puent":1,"cod_nodo":7504,"cap_biart":144,"num_vag":3,"cap_art":212,"globalid":"{E58824EF-9651-4984-9A90-C2C62F022047}","created_user":null,"created_date":null,"last_edited_user":null,"last_edited_date":null}},{"type":"Feature","id":5,"geometry":{"type":"Point","coordinates":[-74.101428781999971,4.5818490570000563]},"properties":{"OBJECTID":5,"observ":"Valores de capacidad de buses en proceso de actualización","longitud":-74.101428780000006,"latitud":4.5818490599999997,"objectid_1":667,"num_est":"09104","nom_est":"Restrepo","id_trazado":"TZ012","long_est":120.17,"ancho_est":4,"area_est":480.68000000000001,"esta_oper":1,"eta_oper":1,"tipo_esta":4,"ub_est":"CL 19 Sur - AV 1 De M","num_acc":2,"acc_esp":2,"acc_depr":0,"acc_puent":0,"cod_nodo":9104,"cap_biart":72,"num_vag":2,"cap_art":128,"globalid":"{2C5764C2-59F3-4CAE-9110-4464F98F600F}","created_user":null,"created_date":null,"last_edited_user":null,"last_edited_date":null}},{"type":"Feature","id":6,"geometry":{"type":"Point","coordinates":[-74.188112181999941,4.5945938190000675]},"properties":{"OBJECTID":6,"observ":"Valores de capacidad de buses en proceso de actualización","longitud":-74.188112180000005,"latitud":4.5945938200000001,"objectid_1":689,"num_est":"07506","nom_est":"La Despensa","id_trazado":"TZ011","long_est":89.5,"ancho_est":4,"area_est":358,"esta_oper":1,"eta_oper":1,"tipo_esta":4,"ub_est":"Soacha","num_acc":1,"acc_esp":0,"acc_depr":0,"acc_puent":1,"cod_nodo":7506,"cap_biart":72,"num_vag":2,"cap_art":152,"globalid":"{F49C22FF-8BAE-41A0-ACCC-344A407E87B4}","created_user":null,"created_date":null,"last_edited_user":null,"last_edited_date":null}},{"type":"Feature","id":7,"geometry":{"type":"Point","coordinates":[-74.123810786999968,4.5600935060000438]},"properties":{"OBJECTID":7,"observ":"Valores de capacidad de buses en proceso de actualización","longitud":-74.123874330000007,"latitud":4.5602273000000002,"objectid_1":693,"num_est":"09002","nom_est":"Consuelo","id_trazado":"TZ012","long_est":81.569999999999993,"ancho_est":4,"area_est":326.27999999999997,"esta_oper":1,"eta_oper":1,"tipo_esta":4,"ub_est":"KR 11A - KR 10C","num_acc":1,"acc_esp":1,"acc_depr":0,"acc_puent":0,"cod_nodo":9002,"cap_biart":72,"num_vag":2,"cap_art":120,"globalid":"{4338B4D6-314C-41C0-AA14-317498DE8561}","created_user":null,"created_date":null,"last_edited_user":"editorInfraSTS","last_edited_date":"2026-06-25T15:43:41Z"}},{"type":"Feature","id":8,"geometry":{"type":"Point","coordinates":[-74.099861373999943,4.6042499760000624]},"properties":{"OBJECTID":8,"observ":"Valores de capacidad de buses en proceso de actualización","longitud":-74.099861369999999,"latitud":4.6042499799999996,"objectid_1":695,"num_est":"07112","nom_est":"Comuneros","id_trazado":"TZ010","long_est":130.16,"ancho_est":4,"area_est":520.63999999999999,"esta_oper":1,"eta_oper":1,"tipo_esta":4,"ub_est":"KR 30 - CL 6A","num_acc":2,"acc_esp":1,"acc_depr":0,"acc_puent":1,"cod_nodo":7112,"cap_biart":108,"num_vag":2,"cap_art":144,"globalid":"{CC73317E-35CC-4D80-9D23-DB9348465D42}","created_user":null,"created_date":null,"last_edited_user":null,"last_edited_date":null}},{"type":"Feature","id":9,"geometry":{"type":"Point","coordinates":[-74.130388678999964,4.5703035190000492]},"properties":{"OBJECTID":9,"observ":"Valores de capacidad de buses en proceso de actualización","longitud":-74.13038868000001,"latitud":4.5703035200000004,"objectid_1":701,"num_est":"08002","nom_est":"Biblioteca","id_trazado":"TZ014","long_est":45.68,"ancho_est":0,"area_est":0,"esta_oper":1,"eta_oper":1,"tipo_esta":4,"ub_est":"CL 48A Sur","num_acc":1,"acc_esp":1,"acc_depr":0,"acc_puent":0,"cod_nodo":8002,"cap_biart":24,"num_vag":1,"cap_art":36,"globalid":"{7CA09A1D-2C80-47B1-9031-D0B4707FC323}","created_user":null,"created_date":null,"last_edited_user":null,"last_edited_date":null}},{"type":"Feature","id":10,"geometry":{"type":"Point","coordinates":[-74.134269926999934,4.5942699350000566]},"properties":{"OBJECTID":10,"observ":"Valores de capacidad de buses en proceso de actualización","longitud":-74.134269930000002,"latitud":4.5942699300000003,"objectid_1":704,"num_est":"07005","nom_est":"Alquería","id_trazado":"TZ010","long_est":89.25,"ancho_est":4,"area_est":357,"esta_oper":1,"eta_oper":1,"tipo_esta":4,"ub_est":"Autosur - KR 48","num_acc":1,"acc_esp":0,"acc_depr":0,"acc_puent":1,"cod_nodo":7005,"cap_biart":72,"num_vag":2,"cap_art":132,"globalid":"{7FD49F39-AC89-465D-81E4-DCA01E57B876}","created_user":null,"created_date":null,"last_edited_user":null,"last_edited_date":null}},{"type":"Feature","id":11,"geometry":{"type":"Point","coordinates":[-74.181224998999937,4.5968879470000275]},"properties":{"OBJECTID":11,"observ":"Valores de capacidad de buses en proceso de actualización","longitud":-74.181224999999998,"latitud":4.5968879500000002,"objectid_1":705,"num_est":"07010","nom_est":"Bosa","id_trazado":"TZ010","long_est":126.08,"ancho_est":4,"area_est":504.31999999999999,"esta_oper":1,"eta_oper":1,"tipo_esta":4,"ub_est":"Soacha","num_acc":2,"acc_esp":0,"acc_depr":0,"acc_puent":2,"cod_nodo":7010,"cap_biart":120,"num_vag":2,"cap_art":152,"globalid":"{23AA251B-55EA-4A49-8E50-BA2D18F9FDE8}","created_user":null,"created_date":null,"last_edited_user":null,"last_edited_date":null}},{"type":"Feature","id":12,"geometry":{"type":"Point","coordinates":[-74.11814917199996,4.5947389070000213]},"properties":{"OBJECTID":12,"observ":"Valores de capacidad de buses en proceso de actualización","longitud":-74.117880749999998,"latitud":4.5947984699999997,"objectid_1":715,"num_est":"07008","nom_est":"NQS - Calle 30 S","id_trazado":"TZ010","long_est":89.620000000000005,"ancho_est":4,"area_est":358.48000000000002,"esta_oper":1,"eta_oper":1,"tipo_esta":4,"ub_est":"Autosur - DG 26 Sur","num_acc":1,"acc_esp":1,"acc_depr":0,"acc_puent":0,"cod_nodo":7008,"cap_biart":72,"num_vag":2,"cap_art":160,"globalid":"{C4900383-3589-4E4A-A3A7-26C6FF2A5598}","created_user":null,"created_date":null,"last_edited_user":"editorInfraSTS","last_edited_date":"2026-06-25T15:41:57Z"}},{"type":"Feature","id":13,"geometry":{"type":"Point","coordinates":[-74.107363823999947,4.5789151890000426]},"properties":{"OBJECTID":13,"observ":"Valores de capacidad de buses en proceso de actualización","longitud":-74.107363819999989,"latitud":4.57891519,"objectid_1":719,"num_est":"09103","nom_est":"Olaya","id_trazado":"TZ012","long_est":76.819999999999993,"ancho_est":4,"area_est":307.27999999999997,"esta_oper":1,"eta_oper":1,"tipo_esta":4,"ub_est":"CL 24 Sur - CL 27 Sur","num_acc":1,"acc_esp":1,"acc_depr":0,"acc_puent":0,"cod_nodo":9103,"cap_biart":120,"num_vag":3,"cap_art":176,"globalid":"{42DE452D-4155-4A6A-B678-25B0F235D789}","created_user":null,"created_date":null,"last_edited_user":null,"last_edited_date":null}},{"type":"Feature","id":14,"geometry":{"type":"Point","coordinates":[-74.121827788999951,4.5570645640000293]},"properties":{"OBJECTID":14,"observ":"Valores de capacidad de buses en proceso de actualización","longitud":-74.121827789999998,"latitud":4.5570645599999997,"objectid_1":720,"num_est":"09001","nom_est":"Molinos","id_trazado":"TZ012","long_est":108.12,"ancho_est":4,"area_est":432.48000000000002,"esta_oper":1,"eta_oper":1,"tipo_esta":2,"ub_est":"KR 9A","num_acc":2,"acc_esp":1,"acc_depr":0,"acc_puent":1,"cod_nodo":9001,"cap_biart":144,"num_vag":2,"cap_art":160,"globalid":"{0A966495-888E-4F89-93F7-8297F2FBFC63}","created_user":null,"created_date":null,"last_edited_user":null,"last_edited_date":null}},{"type":"Feature","id":15,"geometry":{"type":"Point","coordinates":[-74.093925415999934,4.5862847080000506]},"properties":{"OBJECTID":15,"observ":"Valores de capacidad de buses en proceso de actualización","longitud":-74.093925420000005,"latitud":4.5862847100000002,"objectid_1":721,"num_est":"09106","nom_est":"Nariño","id_trazado":"TZ012","long_est":88.489999999999995,"ancho_est":4,"area_est":353.95999999999998,"esta_oper":1,"eta_oper":1,"tipo_esta":4,"ub_est":"CL 8 Sur - CL 11 Sur","num_acc":1,"acc_esp":1,"acc_depr":0,"acc_puent":0,"cod_nodo":9106,"cap_biart":48,"num_vag":2,"cap_art":96,"globalid":"{1C6915D1-74E0-4A6F-8625-FA78A43FF4EA}","created_user":null,"created_date":null,"last_edited_user":null,"last_edited_date":null}},{"type":"Feature","id":16,"geometry":{"type":"Point","coordinates":[-74.130227335999962,4.5935636220000333]},"properties":{"OBJECTID":16,"observ":"Valores de capacidad de buses en proceso de actualización","longitud":-74.129544960000004,"latitud":4.5935511399999998,"objectid_1":729,"num_est":"07006","nom_est":"General Santander","id_trazado":"TZ010","long_est":122.8,"ancho_est":0,"area_est":0,"esta_oper":1,"eta_oper":1,"tipo_esta":2,"ub_est":"Autosur - KR 43","num_acc":1,"acc_esp":0,"acc_depr":0,"acc_puent":1,"cod_nodo":7006,"cap_biart":192,"num_vag":3,"cap_art":212,"globalid":"{7CBD3916-4C5A-46C9-95E0-74D13B16DFF8}","created_user":null,"created_date":null,"last_edited_user":"editorInfraSTS","last_edited_date":"2026-06-25T15:41:32Z"}},{"type":"Feature","id":17,"geometry":{"type":"Point","coordinates":[-74.135414512999944,4.5683265640000741]},"properties":{"OBJECTID":17,"observ":"Valores de capacidad de buses en proceso de actualización","longitud":-74.135414510000004,"latitud":4.56832656,"objectid_1":732,"num_est":"08001","nom_est":"Parque","id_trazado":"TZ014","long_est":45.659999999999997,"ancho_est":0,"area_est":0,"esta_oper":1,"eta_oper":1,"tipo_esta":4,"ub_est":"CL 55 Sur","num_acc":2,"acc_esp":2,"acc_depr":0,"acc_puent":0,"cod_nodo":8001,"cap_biart":24,"num_vag":1,"cap_art":36,"globalid":"{68828E79-D7EF-4880-B6F8-DEC08385F0A6}","created_user":null,"created_date":null,"last_edited_user":null,"last_edited_date":null}},{"type":"Feature","id":18,"geometry":{"type":"Point","coordinates":[-74.086226288999967,4.5950505150000254]},"properties":{"OBJECTID":18,"observ":"Valores de capacidad de buses en proceso de actualización","longitud":-74.086226289999999,"latitud":4.59505052,"objectid_1":735,"num_est":"09108","nom_est":"Hospital","id_trazado":"TZ012","long_est":92.370000000000005,"ancho_est":4,"area_est":369.48000000000002,"esta_oper":1,"eta_oper":3,"tipo_esta":4,"ub_est":"CL 4 - CL 2","num_acc":2,"acc_esp":2,"acc_depr":0,"acc_puent":0,"cod_nodo":9108,"cap_biart":0,"num_vag":2,"cap_art":96,"globalid":"{AC0E7618-8DBB-419A-B435-EE52B2217419}","created_user":null,"created_date":null,"last_edited_user":null,"last_edited_date":null}},{"type":"Feature","id":19,"geometry":{"type":"Point","coordinates":[-74.164969729999939,4.5957877850000273]},"properties":{"OBJECTID":19,"observ":"Valores de capacidad de buses en proceso de actualización","longitud":-74.16496973000001,"latitud":4.5957877800000002,"objectid_1":737,"num_est":"07001","nom_est":"Perdomo","id_trazado":"TZ010","long_est":99.239999999999995,"ancho_est":4,"area_est":396.95999999999998,"esta_oper":1,"eta_oper":1,"tipo_esta":4,"ub_est":"Autosur - KR 78C","num_acc":1,"acc_esp":0,"acc_depr":0,"acc_puent":1,"cod_nodo":7001,"cap_biart":72,"num_vag":2,"cap_art":128,"globalid":"{14996742-4A24-4347-AB25-FA14863B07C9}","created_user":null,"created_date":null,"last_edited_user":null,"last_edited_date":null}},{"type":"Feature","id":20,"geometry":{"type":"Point","coordinates":[-74.090305324999974,4.590774624000062]},"properties":{"OBJECTID":20,"observ":"Valores de capacidad de buses en proceso de actualización","longitud":-74.090245999999993,"latitud":4.5908472500000004,"objectid_1":738,"num_est":"09107","nom_est":"Hortúa","id_trazado":"TZ012","long_est":100.45,"ancho_est":4,"area_est":401.80000000000001,"esta_oper":1,"eta_oper":1,"tipo_esta":4,"ub_est":"CL 1 Sur - CL 3 Sur","num_acc":2,"acc_esp":2,"acc_depr":0,"acc_puent":0,"cod_nodo":9107,"cap_biart":72,"num_vag":2,"cap_art":120,"globalid":"{A8B02A13-9B15-4746-BCE3-618BA8A0800E}","created_user":null,"created_date":null,"last_edited_user":"editorInfraSTS","last_edited_date":"2026-06-25T15:44:39Z"}},{"type":"Feature","id":21,"geometry":{"type":"Point","coordinates":[-74.119390990999989,4.5317145840000421]},"properties":{"OBJECTID":21,"observ":"Valores de capacidad de buses en proceso de actualización","longitud":-74.119390989999999,"latitud":4.53171458,"objectid_1":739,"num_est":"09000","nom_est":"Portal Usme","id_trazado":"TZ013","long_est":402.89999999999998,"ancho_est":0,"area_est":0,"esta_oper":1,"eta_oper":1,"tipo_esta":1,"ub_est":"CL 65C Sur","num_acc":1,"acc_esp":1,"acc_depr":0,"acc_puent":0,"cod_nodo":9000,"cap_biart":78,"num_vag":1,"cap_art":132,"globalid":"{76CA460D-24C9-453E-9BE5-C5992F943BB1}","created_user":null,"created_date":null,"last_edited_user":null,"last_edited_date":null}},{"type":"Feature","id":22,"geometry":{"type":"Point","coordinates":[-74.139240202999986,4.5695714640000347]},"properties":{"OBJECTID":22,"observ":"Valores de capacidad de buses en proceso de actualización","longitud":-74.139240200000003,"latitud":4.5695714599999997,"objectid_1":743,"num_est":"08000","nom_est":"Portal Tunal","id_trazado":"TZ014","long_est":323.17000000000002,"ancho_est":0,"area_est":0,"esta_oper":1,"eta_oper":1,"tipo_esta":1,"ub_est":"AV Boyaca","num_acc":2,"acc_esp":2,"acc_depr":0,"acc_puent":0,"cod_nodo":8000,"cap_biart":64,"num_vag":1,"cap_art":88,"globalid":"{17C6FF6B-F218-4AC1-8594-4089CF516476}","created_user":null,"created_date":null,"last_edited_user":null,"last_edited_date":null}},{"type":"Feature","id":23,"geometry":{"type":"Point","coordinates":[-74.099596369999972,4.5828635340000687]},"properties":{"OBJECTID":23,"observ":"Valores de capacidad de buses en proceso de actualización","longitud":-74.099401749999998,"latitud":4.5829725799999999,"objectid_1":744,"num_est":"09105","nom_est":"Fucha","id_trazado":"TZ012","long_est":80.040000000000006,"ancho_est":4,"area_est":320.16000000000003,"esta_oper":1,"eta_oper":1,"tipo_esta":4,"ub_est":"CL 13 Sur - CL 16 Sur","num_acc":1,"acc_esp":1,"acc_depr":0,"acc_puent":0,"cod_nodo":9105,"cap_biart":48,"num_vag":2,"cap_art":96,"globalid":"{91EABD59-BB01-4D2B-A0E4-FCC9C092AF1B}","created_user":null,"created_date":null,"last_edited_user":"editorInfraSTS","last_edited_date":"2026-06-25T15:44:15Z"}},{"type":"Feature","id":24,"geometry":{"type":"Point","coordinates":[-74.124708718999955,4.5709684840000477]},"properties":{"OBJECTID":24,"observ":"Valores de capacidad de buses en proceso de actualización","longitud":-74.124708720000001,"latitud":4.5709684800000003,"objectid_1":750,"num_est":"09004","nom_est":"Santa Lucía","id_trazado":"TZ012","long_est":121.56,"ancho_est":4,"area_est":486.24000000000001,"esta_oper":1,"eta_oper":1,"tipo_esta":4,"ub_est":"CL 46A Sur - Diagonal 4","num_acc":2,"acc_esp":2,"acc_depr":0,"acc_puent":0,"cod_nodo":9004,"cap_biart":120,"num_vag":2,"cap_art":152,"globalid":"{3918FBF8-1567-42CC-83AE-9807298C2F73}","created_user":null,"created_date":null,"last_edited_user":null,"last_edited_date":null}},{"type":"Feature","id":25,"geometry":{"type":"Point","coordinates":[-74.102845540999965,4.6014876770000228]},"properties":{"OBJECTID":25,"observ":"Valores de capacidad de buses en proceso de actualización","longitud":-74.102617550000005,"latitud":4.60167503,"objectid_1":753,"num_est":"07113","nom_est":"Santa Isabel","id_trazado":"TZ010","long_est":89.260000000000005,"ancho_est":4,"area_est":357.04000000000002,"esta_oper":1,"eta_oper":1,"tipo_esta":4,"ub_est":"KR 30 AV 3","num_acc":1,"acc_esp":1,"acc_depr":0,"acc_puent":0,"cod_nodo":7113,"cap_biart":96,"num_vag":2,"cap_art":144,"globalid":"{47E00D66-07A2-47FD-A08F-14DE053A31B0}","created_user":null,"created_date":null,"last_edited_user":"editorInfraSTS","last_edited_date":"2026-06-25T15:42:30Z"}},{"type":"Feature","id":26,"geometry":{"type":"Point","coordinates":[-74.114380505999975,4.5768097250000324]},"properties":{"OBJECTID":26,"observ":"Valores de capacidad de buses en proceso de actualización","longitud":-74.114380510000004,"latitud":4.5768097299999999,"objectid_1":756,"num_est":"09101","nom_est":"Quiroga","id_trazado":"TZ012","long_est":86.349999999999994,"ancho_est":4,"area_est":345.39999999999998,"esta_oper":1,"eta_oper":1,"tipo_esta":4,"ub_est":"CL 31 Sur - CL 32 Sur","num_acc":1,"acc_esp":1,"acc_depr":0,"acc_puent":0,"cod_nodo":9101,"cap_biart":48,"num_vag":2,"cap_art":96,"globalid":"{440D887E-DDF8-45B9-8BA7-04E59784263C}","created_user":null,"created_date":null,"last_edited_user":null,"last_edited_date":null}},{"type":"Feature","id":27,"geometry":{"type":"Point","coordinates":[-74.156881054999985,4.5962809400000424]},"properties":{"OBJECTID":27,"observ":"Valores de capacidad de buses en proceso de actualización","longitud":-74.15688105000001,"latitud":4.5962809399999998,"objectid_1":759,"num_est":"07002","nom_est":"CC Paseo Villa del Río - Madelena","id_trazado":"TZ010","long_est":89.25,"ancho_est":4,"area_est":357,"esta_oper":1,"eta_oper":1,"tipo_esta":4,"ub_est":"Autosur - KR 67","num_acc":1,"acc_esp":0,"acc_depr":0,"acc_puent":1,"cod_nodo":7002,"cap_biart":72,"num_vag":2,"cap_art":132,"globalid":"{407AF5FD-57D5-4678-8EFD-04B9ECE206D8}","created_user":null,"created_date":null,"last_edited_user":null,"last_edited_date":null}},{"type":"Feature","id":28,"geometry":{"type":"Point","coordinates":[-74.205126412999959,4.5861184440000216]},"properties":{"OBJECTID":28,"observ":"Valores de capacidad de buses en proceso de actualización","longitud":-74.205449740000006,"latitud":4.5859606399999997,"objectid_1":760,"num_est":"07503","nom_est":"San Mateo - CC Unisur","id_trazado":"TZ011","long_est":123.2,"ancho_est":4,"area_est":492.80000000000001,"esta_oper":1,"eta_oper":1,"tipo_esta":2,"ub_est":"Soacha","num_acc":3,"acc_esp":0,"acc_depr":0,"acc_puent":3,"cod_nodo":7503,"cap_biart":192,"num_vag":3,"cap_art":232,"globalid":"{14E08452-BF4F-430E-B3F8-E6A4C48C8C44}","created_user":null,"created_date":null,"last_edited_user":"editorInfraSTS","last_edited_date":"2026-06-25T15:45:14Z"}},{"type":"Feature","id":29,"geometry":{"type":"Point","coordinates":[-74.147410287999946,4.5951072630000454]},"properties":{"OBJECTID":29,"observ":"Valores de capacidad de buses en proceso de actualización","longitud":-74.14741029000001,"latitud":4.5951072599999998,"objectid_1":761,"num_est":"07003","nom_est":"Sevillana","id_trazado":"TZ010","long_est":99.280000000000001,"ancho_est":4,"area_est":397.12,"esta_oper":1,"eta_oper":1,"tipo_esta":4,"ub_est":"Sevillana","num_acc":1,"acc_esp":0,"acc_depr":0,"acc_puent":1,"cod_nodo":7003,"cap_biart":72,"num_vag":2,"cap_art":132,"globalid":"{4BD36C74-DEE4-44B0-8B3E-B389559CBB73}","created_user":null,"created_date":null,"last_edited_user":null,"last_edited_date":null}},{"type":"Feature","id":30,"geometry":{"type":"Point","coordinates":[-74.110642547999987,4.5973705110000651]},"properties":{"OBJECTID":30,"observ":"Valores de capacidad de buses en proceso de actualización","longitud":-74.110642550000009,"latitud":4.5973705100000002,"objectid_1":765,"num_est":"07009","nom_est":"SENA","id_trazado":"TZ010","long_est":100.01000000000001,"ancho_est":4,"area_est":400.04000000000002,"esta_oper":1,"eta_oper":3,"tipo_esta":4,"ub_est":"Autosur - CL 17 S","num_acc":1,"acc_esp":0,"acc_depr":0,"acc_puent":1,"cod_nodo":7009,"cap_biart":144,"num_vag":2,"cap_art":160,"globalid":"{D93EA2A6-EC21-44D9-AD30-E6E503AF4642}","created_user":null,"created_date":null,"last_edited_user":null,"last_edited_date":null}},{"type":"Feature","id":31,"geometry":{"type":"Point","coordinates":[-74.125583934999952,4.5646532760000582]},"properties":{"OBJECTID":31,"observ":"Valores de capacidad de buses en proceso de actualización","longitud":-74.125583939999999,"latitud":4.5646532799999999,"objectid_1":767,"num_est":"09003","nom_est":"Socorro","id_trazado":"TZ012","long_est":82.400000000000006,"ancho_est":4,"area_est":329.60000000000002,"esta_oper":1,"eta_oper":1,"tipo_esta":4,"ub_est":"KR 13B - KR 13C","num_acc":1,"acc_esp":1,"acc_depr":0,"acc_puent":0,"cod_nodo":9003,"cap_biart":72,"num_vag":2,"cap_art":128,"globalid":"{78094E50-83F4-4060-9DBB-0D0FF5693DE5}","created_user":null,"created_date":null,"last_edited_user":null,"last_edited_date":null}},{"type":"Feature","id":32,"geometry":{"type":"Point","coordinates":[-74.142862603999959,4.595541120000064]},"properties":{"OBJECTID":32,"observ":"Valores de capacidad de buses en proceso de actualización","longitud":-74.142649210000002,"latitud":4.5955628300000004,"objectid_1":770,"num_est":"07004","nom_est":"Venecia","id_trazado":"TZ010","long_est":105.93000000000001,"ancho_est":4,"area_est":423.72000000000003,"esta_oper":1,"eta_oper":1,"tipo_esta":4,"ub_est":"Autosur - AV 54","num_acc":1,"acc_esp":0,"acc_depr":0,"acc_puent":1,"cod_nodo":7004,"cap_biart":72,"num_vag":2,"cap_art":132,"globalid":"{EA5822A5-2848-4425-8C57-61F537FE4743}","created_user":null,"created_date":null,"last_edited_user":"editorInfraSTS","last_edited_date":"2026-06-25T15:41:06Z"}},{"type":"Feature","id":33,"geometry":{"type":"Point","coordinates":[-74.121048422999934,4.5460822580000695]},"properties":{"OBJECTID":33,"observ":"Valores de capacidad de buses en proceso de actualización","longitud":-74.120851590000001,"latitud":4.5436543299999999,"objectid_1":873,"num_est":"9005","nom_est":"Danubio","id_trazado":"TZ013","long_est":199.19999999999999,"ancho_est":5,"area_est":996,"esta_oper":1,"eta_oper":1,"tipo_esta":4,"ub_est":"Av. Calle 51 Sur entre carrera 5 y calle 56 sur","num_acc":2,"acc_esp":2,"acc_depr":0,"acc_puent":0,"cod_nodo":9005,"cap_biart":144,"num_vag":0,"cap_art":160,"globalid":"{F8AB6580-D1AF-485F-843C-304B802F582F}","created_user":null,"created_date":null,"last_edited_user":"editorInfraSTS","last_edited_date":"2026-06-25T15:46:17Z"}},{"type":"Feature","id":34,"geometry":{"type":"Point","coordinates":[-74.169297839999956,4.596939945000031]},"properties":{"OBJECTID":34,"observ":"Valores de capacidad de buses en proceso de actualización","longitud":-74.169297839999999,"latitud":4.5969399500000003,"objectid_1":931,"num_est":"07000","nom_est":"Portal Sur - JFK Coop. Financiera","id_trazado":"TZ010","long_est":416.61000000000001,"ancho_est":0,"area_est":0,"esta_oper":1,"eta_oper":1,"tipo_esta":1,"ub_est":"Autosur - KR 82","num_acc":2,"acc_esp":0,"acc_depr":0,"acc_puent":2,"cod_nodo":7000,"cap_biart":96,"num_vag":1,"cap_art":132,"globalid":"{EE4EE71C-71A1-44A1-B89E-AB79C37A811E}","created_user":null,"created_date":null,"last_edited_user":null,"last_edited_date":null}}]}