{"type":"FeatureCollection","features":[{"type":"Feature","id":1,"geometry":{"type":"MultiLineString","coordinates":[[[-74.183914649999963,4.5963890320000473],[-74.183752517999949,4.5964526480000245],[-74.183574491999934,4.5965230580000593],[-74.18324131299994,4.5966365070000279],[-74.183055084999978,4.5966876450000314],[-74.182747243999984,4.5967664940000645],[-74.182145594999952,4.5968480180000597],[-74.181689508999966,4.5968799640000384],[-74.181442466999954,4.5968802030000688],[-74.181224998999937,4.5968879470000275],[-74.180901382999934,4.59689946900005],[-74.179643062999958,4.5969401970000376],[-74.178497294999943,4.5969198090000418],[-74.177430201999982,4.5969410040000298],[-74.176996760999941,4.5969267710000281],[-74.176662028999942,4.5968866600000524],[-74.176186703999974,4.5968358810000609],[-74.175802891999979,4.5967951770000468],[-74.175359306999951,4.5967120490000752],[-74.174819353999965,4.5966333690000738],[-74.174187605999975,4.5965548450000711],[-74.173720022999987,4.5965006540000672],[-74.173311100999967,4.5964513490000627],[-74.172520539999937,4.5963955230000693],[-74.171309654999959,4.5961355340000409],[-74.170201913999961,4.5959433070000273],[-74.169459854999957,4.5958771560000287],[-74.168603259999941,4.5957606830000373],[-74.168068744999971,4.5957480170000622],[-74.167439990999981,4.59576179000004],[-74.167113649999976,4.5957945920000611],[-74.166753093999944,4.5958022960000449],[-74.166481551999937,4.5958008490000566],[-74.166160247999983,4.5957789020000632],[-74.165779014999941,4.59576626300003],[-74.165587701999982,4.5957833590000519],[-74.16505893599998,4.5957884770000419],[-74.164969729999939,4.5957877850000273],[-74.164486323999938,4.5957840330000295],[-74.163650607999955,4.5957876210000563],[-74.162551439999959,4.5958001350000472],[-74.162113246999979,4.5958175160000678],[-74.161954722999951,4.5958294570000362],[-74.16052949699997,4.5959368160000622],[-74.159604927999965,4.5960225120000473],[-74.159300692999977,4.5960567480000236],[-74.158702741999946,4.5961011900000699],[-74.158336217999988,4.5961330840000301],[-74.157958517999987,4.5961643020000338],[-74.15749576199994,4.5962060710000401],[-74.157366855999953,4.5962344080000435],[-74.157034894999981,4.5962646300000642],[-74.156881054999985,4.5962809400000424],[-74.156627730999958,4.5963077970000654],[-74.15648377399998,4.5963142810000477],[-74.155884168999989,4.5963595380000584],[-74.155514448999952,4.5963877680000564],[-74.154883115999951,4.5964384770000493],[-74.154490158999977,4.5964441890000671],[-74.154267123999944,4.5964206800000511],[-74.154072133999989,4.5963919810000675],[-74.153938171999982,4.596362771000031],[-74.153687146999971,4.5962979160000259],[-74.153046256999971,4.5960396170000308],[-74.152852570999983,4.5959458750000408],[-74.152406163999956,4.5957496960000412],[-74.152096840999945,4.5956375560000424],[-74.151799068999935,4.5955816710000477],[-74.151467585999967,4.5955397130000506],[-74.151136913999949,4.5955092600000285],[-74.149953803999949,4.5953768700000523],[-74.149698181999952,4.5953502970000386],[-74.148561403999963,4.5952198770000336],[-74.148411800999952,4.5952020900000434],[-74.147782466999956,4.5951486220000675],[-74.147410287999946,4.5951072630000454],[-74.14708582999998,4.5950712060000569],[-74.146609283999965,4.5950079200000573],[-74.146382856999935,4.59501823100004],[-74.146209250999959,4.595038751000061],[-74.145969392999973,4.5950794410000526],[-74.145444504999944,4.5951820110000199],[-74.144570568999939,4.5953233850000288],[-74.144265373999986,4.5953763060000483],[-74.144004806999988,4.5954171490000704],[-74.143804566999961,4.595443886000055],[-74.143597057999955,4.5954716700000517],[-74.143295897999963,4.5954987970000616],[-74.142738720999944,4.5955532200000562],[-74.14264921399996,4.5955628290000732],[-74.142330458999936,4.5955970480000587],[-74.142114626999955,4.5956130010000606],[-74.141904966999959,4.5956173500000546],[-74.141801233999956,4.5956156540000279],[-74.141562920999945,4.5956097630000272],[-74.141356015999975,4.5955935610000438],[-74.141218945999981,4.5955770950000669],[-74.141084477999982,4.5955597830000556],[-74.140332551999961,4.5954540170000655],[-74.139459672999976,4.5953348720000236],[-74.138784496999961,4.5952435700000365],[-74.138468580999984,4.5951822630000265],[-74.138129355999979,4.5951187680000203],[-74.137877333999938,4.5950786140000446],[-74.137739708999959,4.5950566870000671],[-74.137152821999962,4.594900110000026],[-74.136716992999936,4.594798125000068],[-74.136053172999937,4.5946354050000764],[-74.135410955999987,4.5945012280000697],[-74.135125585999958,4.5944473490000632],[-74.134655562999967,4.5943463210000459],[-74.134269926999934,4.5942699350000566],[-74.133856525999988,4.594188048000035],[-74.133552691999967,4.5941291160000333],[-74.133247155999982,4.5940559930000404],[-74.132790945999943,4.5939858150000532],[-74.131849801999977,4.5938031650000539],[-74.131595554999933,4.5937491760000739],[-74.131370284999946,4.5937031750000301],[-74.13120902999998,4.5936721380000449],[-74.13082310599998,4.5936118520000377],[-74.130503439999984,4.5935764400000494],[-74.130403772999955,4.5935718130000396],[-74.130180559999985,4.5935614510000278],[-74.129675691999978,4.593552222000028],[-74.129552747999981,4.5935512060000292],[-74.129544955999961,4.5935511410000345],[-74.129239918999986,4.5935486190000461],[-74.129033513999957,4.5935457810000457],[-74.128709090999962,4.5935323000000494],[-74.128413167999952,4.5935548940000217],[-74.127408447999983,4.5935643930000651],[-74.126625376999982,4.593591252000067],[-74.125926616999948,4.5936260880000646],[-74.125640739999938,4.5936343300000431],[-74.125118569999984,4.5936618710000516],[-74.124529842999948,4.5937255530000698],[-74.124261494999985,4.5937621750000517],[-74.123755076999942,4.5938094390000401],[-74.123348329999942,4.5938474000000724],[-74.123159857999951,4.5938454710000656],[-74.122468840999943,4.5939204080000309],[-74.12179359199996,4.5940082000000757],[-74.120868247999965,4.5941728670000543],[-74.120468217999985,4.5942419050000467],[-74.119914688999984,4.5943534410000666],[-74.119353816999933,4.5944710450000343],[-74.118797419999964,4.594595072000061],[-74.117880745999969,4.5947984660000429],[-74.117556990999958,4.5948703020000607],[-74.11680436599994,4.5950703140000542],[-74.116270903999975,4.5952208440000391],[-74.115694899999937,4.595385201000056],[-74.115151371999957,4.5955594870000596],[-74.114609671999972,4.5957276650000267],[-74.113935301999959,4.5959557470000618],[-74.113426662999984,4.596140971000068],[-74.113084716999936,4.5962812360000385],[-74.112310159999936,4.5965943600000401],[-74.111675915999967,4.5968732880000402],[-74.111224757999935,4.5970926530000611],[-74.110679494999943,4.5973530310000683],[-74.110642547999987,4.5973705110000651],[-74.110316970999975,4.5975245410000412],[-74.110122674999957,4.5976320460000579],[-74.109696885999938,4.5978375360000427],[-74.109138364999978,4.598103816000048],[-74.108916283999974,4.5982077680000657],[-74.108825323999952,4.5982327130000726],[-74.108747501999972,4.5982508850000272],[-74.108645690999936,4.5982655160000263],[-74.108529175999934,4.5982633480000459],[-74.108438650999972,4.5982556210000212],[-74.108338864999951,4.5982368340000335],[-74.10824804799995,4.5982010760000662],[-74.108104073999982,4.5981467580000412],[-74.107894009999939,4.5980704070000229]],[[-74.107894009999939,4.5980704070000229],[-74.107687683999984,4.5980140130000677],[-74.107662092999988,4.5980199950000724],[-74.107548435999945,4.5980465610000465],[-74.107367223999972,4.5981441880000489],[-74.107062027999973,4.5983796390000293],[-74.106892602999949,4.5985116090000702]],[[-74.106892602999949,4.5985116090000702],[-74.107100862999971,4.5984439490000568],[-74.107277953999983,4.5983718030000205],[-74.107435458999987,4.5983299580000221],[-74.107564208999975,4.598299207000025],[-74.107693008999945,4.5982765080000263],[-74.107760008999946,4.5982571080000412],[-74.107856609999942,4.5981926080000335],[-74.107888058999947,4.5981376090000481],[-74.107895012999961,4.5981038040000612],[-74.107894009999939,4.5980704070000229]],[[-74.106892602999949,4.5985116090000702],[-74.106326402999969,4.5989390140000523],[-74.106088412999952,4.5991138350000256],[-74.10537867499994,4.5996236750000321],[-74.104971904999957,4.599925057000064],[-74.10455965999995,4.6002226100000598],[-74.104176525999947,4.6004977960000701],[-74.103733978999969,4.6008091280000372],[-74.103181561999975,4.6012252630000603],[-74.102923289999978,4.6014240210000708],[-74.102758241999936,4.6015591520000498],[-74.102617548999945,4.6016750260000663],[-74.102472055999954,4.6017948520000687],[-74.101706332999981,4.6024546050000481],[-74.100706486999968,4.6033704750000766],[-74.100488318999965,4.60356930100005],[-74.100340324999934,4.6037310630000547],[-74.09998021499996,4.6041193020000719],[-74.099861373999943,4.6042499760000624],[-74.09963954899996,4.604493886000057],[-74.099490510999942,4.6046614900000691],[-74.099063525999952,4.6051387210000598],[-74.098859568999956,4.6053641760000232],[-74.098663617999989,4.6055880770000499],[-74.09823122499995,4.6061301060000233],[-74.098084114999949,4.6063567110000463],[-74.098071971999957,4.6063754160000485]]]},"properties":{"OBJECTID":1,"objectid_1":134,"id_trazado":"TZ010","long_traz":10.16601251,"ori_traz":"Avenida Calle 6","fin_traz":"Limite del Distrito","nom_traz":"NQS Sur","le_troncal":"G","nom_tronc":"NQS Sur","fase_tronc":"FASE II","eta_oper":1,"esta_oper":1,"tipo_tra":1,"globalid":"{056691A8-F808-4F78-ABE4-F41034972131}","Shape_Length":0.091624385268360295}},{"type":"Feature","id":2,"geometry":{"type":"LineString","coordinates":[[-74.140298696999935,4.5670820550000713],[-74.139889131999951,4.5671556970000324],[-74.139557945999968,4.5672104600000694],[-74.139355446999957,4.567239460000053],[-74.139180950999958,4.5672556030000351],[-74.138196931999971,4.567316164000033],[-74.137894161999952,4.5673280940000609],[-74.137693556999977,4.567355616000043],[-74.13746783299996,4.567395728000065],[-74.137327901999981,4.5674401060000491],[-74.137079572999937,4.5675477270000329],[-74.136579319999953,4.5677968160000546],[-74.135800530999973,4.5681597530000317],[-74.135414512999944,4.5683265640000741],[-74.135147052999969,4.5684421410000482],[-74.134487096999976,4.5687007660000631],[-74.134407626999973,4.5687323410000431],[-74.133333055999969,4.5691592900000728],[-74.132393468999965,4.5695120880000673],[-74.131953919999944,4.5697004790000619],[-74.13143903699995,4.569894482000052],[-74.130487646999939,4.5702652780000221],[-74.130388678999964,4.5703035190000492],[-74.130177161999939,4.5703852480000364],[-74.129955035999956,4.5704798450000226],[-74.129699494999954,4.5705726090000667],[-74.129469837999977,4.5706286530000284],[-74.12932755199995,4.570657289000053],[-74.129144319999966,4.5706606130000296],[-74.128947985999957,4.5706519960000378],[-74.128759429999945,4.5706369140000334],[-74.128647572999967,4.570617440000035],[-74.128481305999969,4.5705701320000571],[-74.128206205999959,4.5704680180000423],[-74.127933802999962,4.5703401820000522],[-74.127151660999971,4.5699272720000295],[-74.126499213999978,4.5695678360000329],[-74.126069536999978,4.5693517720000614],[-74.125856473999988,4.5692521650000231],[-74.125503920999961,4.569096671000068]]},"properties":{"OBJECTID":2,"objectid_1":135,"id_trazado":"TZ014","long_traz":1.7586885800000001,"ori_traz":"Avenida Caracas","fin_traz":"Portal Tunal","nom_traz":"Tunal","le_troncal":"H","nom_tronc":"Caracas Sur","fase_tronc":"FASE I","eta_oper":1,"esta_oper":1,"tipo_tra":1,"globalid":"{DD123375-34F0-4917-8BE2-4AC255E54F38}","Shape_Length":0.015811597531318937}},{"type":"Feature","id":3,"geometry":{"type":"LineString","coordinates":[[-74.08471216199996,4.5970746830000735],[-74.085203950999983,4.5963940630000479],[-74.085470533999967,4.5960277510000651],[-74.085856224999986,4.5955158460000689],[-74.08602713199997,4.5952985740000258],[-74.086226288999967,4.5950505150000254],[-74.086417614999959,4.5948122110000327],[-74.086538488999963,4.5946542690000456],[-74.087950304999936,4.5929621290000568],[-74.088234348999947,4.5926243330000602],[-74.088593367999977,4.5922038630000657],[-74.088924401999975,4.5919379350000327],[-74.089133293999964,4.5918403690000673],[-74.089305726999953,4.5917627150000726],[-74.089457773999982,4.5916895370000361],[-74.08958353099996,4.5916100400000346],[-74.089674968999987,4.5915375290000497],[-74.089763626999968,4.5914377780000564],[-74.090245997999943,4.5908472530000495],[-74.09036518399995,4.5907013440000242],[-74.090676046999988,4.5903061960000286],[-74.091174773999967,4.5896873010000263],[-74.092204414999969,4.5884629770000629],[-74.092887105999978,4.5875861090000285],[-74.093270504999964,4.587109870000063],[-74.093589537999947,4.5866917970000713],[-74.093879451999953,4.586332667000022],[-74.093925415999934,4.5862847080000506],[-74.094182261999947,4.5860167030000412],[-74.094327065999948,4.5858646390000217],[-74.094616822999967,4.5855852250000453],[-74.094830202999958,4.5854488010000409],[-74.095092030999979,4.5853124140000432],[-74.095505093999975,4.5851044190000607],[-74.095905221999942,4.584913072000063],[-74.096578250999983,4.5846113410000271],[-74.097159226999963,4.5843191210000214],[-74.097632977999979,4.5840682140000695],[-74.097961510999937,4.5838778650000336],[-74.098318651999989,4.5836520570000516],[-74.098718187999964,4.5833965700000476],[-74.099166704999959,4.5831036350000431],[-74.099401753999985,4.5829725760000315],[-74.099563984999975,4.582882120000022],[-74.099821955999971,4.5827340620000427],[-74.101027327999986,4.5820681360000322],[-74.101419044999943,4.581854599000053],[-74.101428781999971,4.5818490570000563],[-74.101945737999984,4.5815548100000569],[-74.102258786999982,4.5813909200000467],[-74.102404906999936,4.5813036610000495],[-74.102617686999963,4.5811985150000396],[-74.102963018999958,4.5810319060000211],[-74.104036420999989,4.5805159690000323],[-74.104571611999972,4.5802534990000368],[-74.106290091999938,4.5794081490000735],[-74.106912487999978,4.5791108520000421],[-74.107363823999947,4.5789151890000426],[-74.107495258999961,4.5788582090000318],[-74.107847793999952,4.5787202810000736],[-74.108007879999946,4.578662816000076],[-74.10829668699995,4.578560239000069],[-74.108759855999949,4.5784146080000596],[-74.109609885999987,4.5781768230000353],[-74.109695463999969,4.5781518810000534],[-74.109711768999944,4.5781471830000555],[-74.110817840999971,4.5778368620000265],[-74.111708585999963,4.5775817370000595],[-74.112986401999933,4.5771839230000637],[-74.113657003999947,4.5769877820000602],[-74.114380505999975,4.5768097250000324],[-74.114807455999937,4.5767046500000674],[-74.11494537599998,4.5766857010000308],[-74.116038053999944,4.5764838110000596],[-74.117370043999983,4.5762956690000465],[-74.117842113999984,4.5762136710000618],[-74.118668880999962,4.57607962000003],[-74.119320921999986,4.5759785490000695],[-74.120079239999939,4.5757941520000713],[-74.120109604999982,4.5757867680000572],[-74.120761692999963,4.5756099500000573],[-74.121426836999944,4.5754625440000609],[-74.121979429999953,4.5753173850000621],[-74.122432956999944,4.5751678300000549],[-74.122776036999937,4.5750061020000317],[-74.12297652999996,4.5748861130000478],[-74.123189445999969,4.5747102300000506],[-74.123373557999969,4.5744915480000259],[-74.123497003999944,4.5743260290000762],[-74.123550232999946,4.5742546600000651],[-74.123703303999946,4.573906801000021],[-74.124021504999973,4.5729791720000321],[-74.124399762999985,4.5718565480000279],[-74.124534943999947,4.5714961160000485],[-74.124701979999941,4.5709878510000408],[-74.124708718999955,4.5709684840000477],[-74.124766717999989,4.5708018020000623],[-74.125001643999951,4.5701925910000227],[-74.125264385999969,4.5695940830000268],[-74.125481589999936,4.5691405310000732],[-74.125503920999961,4.569096671000068],[-74.125731395999935,4.568649884000024],[-74.126008050999985,4.5681529470000442],[-74.126415685999973,4.5674883810000324],[-74.126468659999944,4.5673942040000384],[-74.126517231999969,4.5672847230000571],[-74.126550590999955,4.5671930390000739],[-74.126574775999984,4.5670972000000347],[-74.126585720999969,4.5669725580000318],[-74.126581727999962,4.5668321070000388],[-74.126569771999982,4.5666657280000322],[-74.126557499999933,4.5665478070000631],[-74.126545618999955,4.5664373100000262],[-74.126527956999951,4.5662919120000538],[-74.12648176099998,4.5661414550000359],[-74.126231595999968,4.5656784710000693],[-74.126086617999988,4.5654380000000288],[-74.125972857999955,4.5652411500000198],[-74.125796191999939,4.5650034230000642],[-74.125641887999961,4.5647526180000568],[-74.125583934999952,4.5646532760000582],[-74.125356322999949,4.5642631010000514],[-74.125118124999972,4.5638193130000673],[-74.125069742999983,4.5637067170000591],[-74.125026003999949,4.5636003620000452],[-74.124994709999953,4.5634974740000303],[-74.124979440999937,4.5634234310000465],[-74.124956120999968,4.5633285800000749],[-74.124908943999969,4.5624332640000489],[-74.124878885999976,4.562278559000049],[-74.124832289999972,4.5621440590000475],[-74.124771661999944,4.5619943660000217],[-74.124697186999981,4.5618495500000336],[-74.124630895999985,4.5617142570000624],[-74.124566891999962,4.5615896200000634],[-74.124234696999963,4.5609118780000699],[-74.12401626999997,4.5605139510000754],[-74.123874333999936,4.5602273040000227],[-74.12384562799997,4.5601693320000436],[-74.12363236799996,4.5597052020000319],[-74.123531252999953,4.5594551920000299],[-74.123388423999984,4.5592042010000569],[-74.123261420999938,4.559036504000062],[-74.123122805999969,4.5588656420000575],[-74.122838150999939,4.5585249940000381],[-74.122675168999933,4.5583300540000664],[-74.122227396999961,4.5578068790000543],[-74.122203898999942,4.5577703470000301],[-74.122084465999933,4.5576118370000245],[-74.121845273999952,4.5570996210000203],[-74.121827788999951,4.5570645640000293],[-74.121694900999955,4.5567981360000545],[-74.121593322999956,4.5565168280000421],[-74.121559416999958,4.5564147040000762],[-74.121541902999979,4.5563414590000662],[-74.121521931999951,4.5562189490000264],[-74.121486366999989,4.5560238720000257]]},"properties":{"OBJECTID":3,"objectid_1":137,"id_trazado":"TZ012","long_traz":7.4095456200000003,"ori_traz":"Avenida Calle 6","fin_traz":"Molinos","nom_traz":"Caracas Sur","le_troncal":"H","nom_tronc":"Caracas Sur","fase_tronc":"FASE I","eta_oper":1,"esta_oper":1,"tipo_tra":1,"globalid":"{676A7CE3-AE64-4279-B695-A1A59462184C}","Shape_Length":0.06689596042437343}},{"type":"Feature","id":4,"geometry":{"type":"LineString","coordinates":[[-74.207079953999937,4.5851560020000761],[-74.207066347999955,4.5851629090000756],[-74.206403962999957,4.5854991880000284],[-74.205832739999948,4.5857776030000537],[-74.205456079999976,4.5859576130000619],[-74.205449735999935,4.5859606440000675],[-74.205302503999974,4.5860310080000204],[-74.205041329999972,4.5861606920000213],[-74.204695529999981,4.5863278990000254],[-74.204077771999948,4.586644293000063],[-74.203241709999986,4.5870629140000574],[-74.20266982399994,4.5873432020000564],[-74.202044328999989,4.5876564140000369],[-74.201248843999963,4.5880731700000297],[-74.200982685999975,4.5882236510000212],[-74.20092974399995,4.5882487710000532],[-74.200793731999966,4.5883133020000741],[-74.200634582999953,4.5883788090000621],[-74.199895400999935,4.5887616500000377],[-74.199522611999953,4.5889627040000391],[-74.19936235299997,4.5890491360000283],[-74.198504267999965,4.589488622000033],[-74.197992835999969,4.5897476630000256],[-74.196911314999966,4.5902875680000648],[-74.194903794999959,4.5912823120000326],[-74.194472924999957,4.5915016430000719],[-74.194061079999983,4.5917150640000273],[-74.193593454999984,4.5919443930000625],[-74.193135312999971,4.5921728110000686],[-74.193058030999964,4.5922113420000414],[-74.192533354999966,4.592469809000022],[-74.192153017999942,4.5926425920000611],[-74.191202307999959,4.5930803620000233],[-74.190460139999971,4.5934493900000462],[-74.189130071999955,4.5940840310000226],[-74.188966636999965,4.5941597690000435],[-74.188578416999974,4.5943542460000231],[-74.188320917999988,4.5944881400000668],[-74.188112181999941,4.5945938190000675],[-74.187756131999947,4.5947740780000572],[-74.187381440999957,4.5949586340000224],[-74.187098933999948,4.5950886120000405],[-74.186659733999988,4.595286576000035],[-74.186053311999956,4.5955458760000738],[-74.185675358999958,4.5956904230000646],[-74.185148298999934,4.5958940960000518],[-74.184605922999936,4.5961126150000382],[-74.18421922899995,4.5962658730000499],[-74.184000072999936,4.5963531960000523],[-74.183914649999963,4.5963890320000473]]},"properties":{"OBJECTID":4,"objectid_1":138,"id_trazado":"TZ011","long_traz":2.8596451200000002,"ori_traz":"Limite Del Distrito","fin_traz":"San Mateo","nom_traz":"Soacha","le_troncal":"G","nom_tronc":"NQS Sur","fase_tronc":"FASE II","eta_oper":1,"esta_oper":1,"tipo_tra":1,"globalid":"{01CE94FC-D04E-475F-9F2E-505778EFC515}","Shape_Length":0.025756990911465962}},{"type":"Feature","id":5,"geometry":{"type":"LineString","coordinates":[[-74.119830326999988,4.5269631520000644],[-74.119847082999968,4.527047193000044],[-74.119868090999944,4.5271525650000513],[-74.119842528999982,4.5272696590000692],[-74.119787852999934,4.5273537150000607],[-74.119657856999936,4.5274987910000277],[-74.119493722999948,4.5276819630000205],[-74.11928031399998,4.5279881330000649],[-74.119180749999941,4.5281545390000701],[-74.119109460999937,4.5282971200000475],[-74.119086301999971,4.5290704170000708],[-74.119061004999935,4.5301040840000724],[-74.119041481999943,4.5312335740000549],[-74.119060267999942,4.5321693470000355],[-74.119068993999974,4.5323810630000594],[-74.119202990999952,4.5327340610000419],[-74.11939198999994,4.5330250580000211],[-74.119565988999966,4.5331980570000496],[-74.12000636099998,4.5335300860000416],[-74.120142256999941,4.5336003780000738],[-74.120326575999968,4.5338183450000429],[-74.120479638999939,4.5339993520000235],[-74.120675717999973,4.5342715080000744],[-74.120733347999987,4.5344649970000432],[-74.120745358999955,4.5346192780000365],[-74.120728915999962,4.5347807380000518],[-74.12064410499994,4.5351135550000663],[-74.120460266999942,4.5355038250000348],[-74.120340781999971,4.5357420190000539],[-74.120275414999981,4.5359114080000609],[-74.120229828999982,4.53607845800002],[-74.120198191999975,4.5362166040000602],[-74.120185843999934,4.5363335910000728],[-74.120180243999982,4.5364723330000629],[-74.120198700999936,4.536608258000058],[-74.120422942999937,4.5373542090000569],[-74.120450620999975,4.5374540640000305],[-74.120468048999953,4.5375624120000566],[-74.120470055999988,4.5376894410000546],[-74.120572639999978,4.5395921390000353],[-74.120611736999933,4.5404182090000518],[-74.120687444999987,4.541493072000037],[-74.120721377999985,4.5420728380000241],[-74.120795881999982,4.5430245460000265],[-74.120850909999945,4.5436449290000382],[-74.120851588999983,4.5436543290000486],[-74.120890602999964,4.5441951190000509],[-74.120945336999966,4.5448586620000242],[-74.121045648999939,4.5460247800000388],[-74.121073285999955,4.546597595000037],[-74.121095171999968,4.547353706000024],[-74.12111506399998,4.5479433340000242],[-74.121129844999984,4.5484078180000438],[-74.121142932999987,4.5489769680000336],[-74.121176902999935,4.5495683780000604],[-74.121217505999937,4.5502135300000646],[-74.121387936999952,4.5533242120000637],[-74.121413479999944,4.5546391580000432],[-74.121402781999961,4.5547618410000723],[-74.12138465299995,4.5548650130000397],[-74.121360091999975,4.5550115680000545],[-74.121344115999989,4.5551144310000495],[-74.121348370999954,4.5552631530000554],[-74.121366895999984,4.5554019210000547],[-74.121486366999989,4.5560238720000257]]},"properties":{"OBJECTID":5,"objectid_1":142,"id_trazado":"TZ013","long_traz":2.5289247499999998,"ori_traz":"Molinos","fin_traz":"Portal De Usme","nom_traz":"Caracas Sur Extension","le_troncal":"H","nom_tronc":"Caracas Sur","fase_tronc":"FASE I","eta_oper":1,"esta_oper":1,"tipo_tra":1,"globalid":"{41B4A9B9-5CBA-4BF9-84F1-4FB188346A03}","Shape_Length":0.030149739984869393}}]}